{"type": "FeatureCollection", "features": [ {"type": "Feature", "properties": {"norad_id": 30715, "name": "FENGYUN 1C DEB", "group": "fengyun-1c-debris", "lat": 29.5660819122385, "lon": -118.25169412790748, "alt_km": 794.8437591135689, "timestamp": "2025-12-13T10:41:26.044495+00:00", "meta": {"OBJECT_NAME": "FENGYUN 1C DEB", "OBJECT_ID": "1999-025ARZ", "EPOCH": "2025-12-12T03:25:48.592992", "MEAN_MOTION": 14.14686733, "ECCENTRICITY": 0.00677007, "INCLINATION": 98.9724, "RA_OF_ASC_NODE": 55.2974, "ARG_OF_PERICENTER": 169.9309, "MEAN_ANOMALY": 190.3238, "EPHEMERIS_TYPE": 0, "CLASSIFICATION_TYPE": "U", "NORAD_CAT_ID": 30715, "ELEMENT_SET_NO": 999, "REV_AT_EPOCH": 96173, "BSTAR": 0.002821555, "MEAN_MOTION_DOT": 5.509e-05, "MEAN_MOTION_DDOT": 0}, "tle": {"line1": "1 30715U 99025ARZ 25346.14292353  .00005509  00000+0  28216-2 0  9999", "line2": "2 30715  98.9724  55.2974 0067700 169.9309 190.3238 14.14686733961731"}}, "geometry": {"type": "Point", "coordinates": [-118.25169412790748, 29.5660819122385]}}, {"type": "Feature", "properties": {"norad_id": 30716, "name": "FENGYUN 1C DEB", "group": "fengyun-1c-debris", "lat": 51.3418537432037, "lon": 1.8426222705636157, "alt_km": 616.6478405919534, "timestamp": "2025-12-13T10:41:26.044505+00:00", "meta": {"OBJECT_NAME": "FENGYUN 1C DEB", "OBJECT_ID": "1999-025ASA", "EPOCH": "2025-12-12T10:04:02.989920", "MEAN_MOTION": 14.79346217, "ECCENTRICITY": 0.00203262, "INCLINATION": 98.8731, "RA_OF_ASC_NODE": 169.4497, "ARG_OF_PERICENTER": 83.6758, "MEAN_ANOMALY": 343.02, "EPHEMERIS_TYPE": 0, "CLASSIFICATION_TYPE": "U", "NORAD_CAT_ID": 30716, "ELEMENT_SET_NO": 999, "REV_AT_EPOCH": 97819, "BSTAR": 0.0061828129, "MEAN_MOTION_DOT": 0.00046453, "MEAN_MOTION_DDOT": 0}, "tle": {"line1": "1 30716U 99025ASA 25346.41947905  .00046453  00000+0  61828-2 0  9999", "line2": "2 30716  98.8731 169.4497 0020326  83.6758 343.0200 14.79346217978195"}}, "geometry": {"type": "Point", "coordinates": [1.8426222705636157, 51.3418537432037]}}, {"type": "Feature", "properties": {"norad_id": 30717, "name": "FENGYUN 1C DEB", "group": "fengyun-1c-debris", "lat": 4.290899595063817, "lon": -121.10486157220159, "alt_km": 819.7821664574758, "timestamp": "2025-12-13T10:41:26.044516+00:00", "meta": {"OBJECT_NAME": "FENGYUN 1C DEB", "OBJECT_ID": "1999-025ASB", "EPOCH": "2025-12-12T03:26:01.671360", "MEAN_MOTION": 14.2053577, "ECCENTRICITY": 0.0048346, "INCLINATION": 99.0171, "RA_OF_ASC_NODE": 56.8848, "ARG_OF_PERICENTER": 259.529, "MEAN_ANOMALY": 100.0436, "EPHEMERIS_TYPE": 0, "CLASSIFICATION_TYPE": "U", "NORAD_CAT_ID": 30717, "ELEMENT_SET_NO": 999, "REV_AT_EPOCH": 96528, "BSTAR": 0.0021250234, "MEAN_MOTION_DOT": 4.576e-05, "MEAN_MOTION_DDOT": 0}, "tle": {"line1": "1 30717U 99025ASB 25346.14307490  .00004576  00000+0  21250-2 0  9994", "line2": "2 30717  99.0171  56.8848 0048346 259.5290 100.0436 14.20535770965281"}}, "geometry": {"type": "Point", "coordinates": [-121.10486157220159, 4.290899595063817]}}, {"type": "Feature", "properties": {"norad_id": 30718, "name": "FENGYUN 1C DEB", "group": "fengyun-1c-debris", "lat": -73.9633434490825, "lon": -145.13961407506352, "alt_km": 826.4426444778437, "timestamp": "2025-12-13T10:41:26.044530+00:00", "meta": {"OBJECT_NAME": "FENGYUN 1C DEB", "OBJECT_ID": "1999-025ASC", "EPOCH": "2025-12-12T21:41:32.652096", "MEAN_MOTION": 14.24352561, "ECCENTRICITY": 0.00575649, "INCLINATION": 98.8902, "RA_OF_ASC_NODE": 67.3056, "ARG_OF_PERICENTER": 155.945, "MEAN_ANOMALY": 204.4437, "EPHEMERIS_TYPE": 0, "CLASSIFICATION_TYPE": "U", "NORAD_CAT_ID": 30718, "ELEMENT_SET_NO": 999, "REV_AT_EPOCH": 96776, "BSTAR": 0.0024626565, "MEAN_MOTION_DOT": 5.75e-05, "MEAN_MOTION_DDOT": 0}, "tle": {"line1": "1 30718U 99025ASC 25346.90385014  .00005750  00000+0  24627-2 0  9993", "line2": "2 30718  98.8902  67.3056 0057564 155.9450 204.4437 14.24352561967762"}}, "geometry": {"type": "Point", "coordinates": [-145.13961407506352, -73.9633434490825]}}, {"type": "Feature", "properties": {"norad_id": 30719, "name": "FENGYUN 1C DEB", "group": "fengyun-1c-debris", "lat": -11.026481034613216, "lon": 131.00372919996008, "alt_km": 706.9587616263416, "timestamp": "2025-12-13T10:41:26.044540+00:00", "meta": {"OBJECT_NAME": "FENGYUN 1C DEB", "OBJECT_ID": "1999-025ASD", "EPOCH": "2025-12-12T03:28:28.391520", "MEAN_MOTION": 14.59217659, "ECCENTRICITY": 0.0011086, "INCLINATION": 98.8876, "RA_OF_ASC_NODE": 127.8649, "ARG_OF_PERICENTER": 196.5191, "MEAN_ANOMALY": 163.5646, "EPHEMERIS_TYPE": 0, "CLASSIFICATION_TYPE": "U", "NORAD_CAT_ID": 30719, "ELEMENT_SET_NO": 999, "REV_AT_EPOCH": 97440, "BSTAR": 0.005218628, "MEAN_MOTION_DOT": 0.00024674, "MEAN_MOTION_DDOT": 0}, "tle": {"line1": "1 30719U 99025ASD 25346.14477305  .00024674  00000+0  52186-2 0  9992", "line2": "2 30719  98.8876 127.8649 0011086 196.5191 163.5646 14.59217659974407"}}, "geometry": {"type": "Point", "coordinates": [131.00372919996008, -11.026481034613216]}}, {"type": "Feature", "properties": {"norad_id": 30720, "name": "FENGYUN 1C DEB", "group": "fengyun-1c-debris", "lat": -71.02128771044254, "lon": -171.4767181130429, "alt_km": 784.1281626572245, "timestamp": "2025-12-13T10:41:26.044551+00:00", "meta": {"OBJECT_NAME": "FENGYUN 1C DEB", "OBJECT_ID": "1999-025ASE", "EPOCH": "2025-12-11T06:05:38.704416", "MEAN_MOTION": 14.29118529, "ECCENTRICITY": 0.00324146, "INCLINATION": 99.0364, "RA_OF_ASC_NODE": 158.6895, "ARG_OF_PERICENTER": 333.3756, "MEAN_ANOMALY": 204.9858, "EPHEMERIS_TYPE": 0, "CLASSIFICATION_TYPE": "U", "NORAD_CAT_ID": 30720, "ELEMENT_SET_NO": 999, "REV_AT_EPOCH": 97467, "BSTAR": 0.00058200387, "MEAN_MOTION_DOT": 1.437e-05, "MEAN_MOTION_DDOT": 0}, "tle": {"line1": "1 30720U 99025ASE 25345.25392019  .00001437  00000+0  58200-3 0  9999", "line2": "2 30720  99.0364 158.6895 0032414 333.3756 204.9858 14.29118529974672"}}, "geometry": {"type": "Point", "coordinates": [-171.4767181130429, -71.02128771044254]}}, {"type": "Feature", "properties": {"norad_id": 30721, "name": "FENGYUN 1C DEB", "group": "fengyun-1c-debris", "lat": -81.22730666109085, "lon": -157.79283082839743, "alt_km": 654.5820303529781, "timestamp": "2025-12-13T10:41:26.044561+00:00", "meta": {"OBJECT_NAME": "FENGYUN 1C DEB", "OBJECT_ID": "1999-025ASF", "EPOCH": "2025-12-12T22:36:37.185120", "MEAN_MOTION": 14.71901616, "ECCENTRICITY": 0.00279725, "INCLINATION": 98.7099, "RA_OF_ASC_NODE": 118.2581, "ARG_OF_PERICENTER": 339.8178, "MEAN_ANOMALY": 145.8948, "EPHEMERIS_TYPE": 0, "CLASSIFICATION_TYPE": "U", "NORAD_CAT_ID": 30721, "ELEMENT_SET_NO": 999, "REV_AT_EPOCH": 97845, "BSTAR": 0.0045265083, "MEAN_MOTION_DOT": 0.00028577, "MEAN_MOTION_DDOT": 0}, "tle": {"line1": "1 30721U 99025ASF 25346.94209705  .00028577  00000+0  45265-2 0  9996", "line2": "2 30721  98.7099 118.2581 0027972 339.8178 145.8948 14.71901616978457"}}, "geometry": {"type": "Point", "coordinates": [-157.79283082839743, -81.22730666109085]}}, {"type": "Feature", "properties": {"norad_id": 30723, "name": "FENGYUN 1C DEB", "group": "fengyun-1c-debris", "lat": 66.11598451457323, "lon": 52.907957532066376, "alt_km": 758.3658475372349, "timestamp": "2025-12-13T10:41:26.044571+00:00", "meta": {"OBJECT_NAME": "FENGYUN 1C DEB", "OBJECT_ID": "1999-025ASH", "EPOCH": "2025-12-12T22:58:30.986976", "MEAN_MOTION": 14.41348131, "ECCENTRICITY": 0.00155183, "INCLINATION": 98.8434, "RA_OF_ASC_NODE": 72.9875, "ARG_OF_PERICENTER": 261.1249, "MEAN_ANOMALY": 155.1736, "EPHEMERIS_TYPE": 0, "CLASSIFICATION_TYPE": "U", "NORAD_CAT_ID": 30723, "ELEMENT_SET_NO": 999, "REV_AT_EPOCH": 97374, "BSTAR": 0.0032538527, "MEAN_MOTION_DOT": 0.00010516, "MEAN_MOTION_DDOT": 0}, "tle": {"line1": "1 30723U 99025ASH 25346.95730309  .00010516  00000+0  32539-2 0  9992", "line2": "2 30723  98.8434  72.9875 0015518 261.1249 155.1736 14.41348131973744"}}, "geometry": {"type": "Point", "coordinates": [52.907957532066376, 66.11598451457323]}}, {"type": "Feature", "properties": {"norad_id": 30724, "name": "FENGYUN 1C DEB", "group": "fengyun-1c-debris", "lat": -31.761822117444467, "lon": 178.01211427284713, "alt_km": 750.9610838882036, "timestamp": "2025-12-13T10:41:26.044581+00:00", "meta": {"OBJECT_NAME": "FENGYUN 1C DEB", "OBJECT_ID": "1999-025ASJ", "EPOCH": "2025-12-12T07:15:53.941824", "MEAN_MOTION": 14.3704562, "ECCENTRICITY": 0.00929673, "INCLINATION": 99.3156, "RA_OF_ASC_NODE": 170.9434, "ARG_OF_PERICENTER": 261.2202, "MEAN_ANOMALY": 277.1901, "EPHEMERIS_TYPE": 0, "CLASSIFICATION_TYPE": "U", "NORAD_CAT_ID": 30724, "ELEMENT_SET_NO": 999, "REV_AT_EPOCH": 98446, "BSTAR": 0.00066215599, "MEAN_MOTION_DOT": 2.012e-05, "MEAN_MOTION_DDOT": 0}, "tle": {"line1": "1 30724U 99025ASJ 25346.30270766  .00002012  00000+0  66216-3 0  9990", "line2": "2 30724  99.3156 170.9434 0092967 261.2202 277.1901 14.37045620984467"}}, "geometry": {"type": "Point", "coordinates": [178.01211427284713, -31.761822117444467]}}, {"type": "Feature", "properties": {"norad_id": 30725, "name": "FENGYUN 1C DEB", "group": "fengyun-1c-debris", "lat": 69.90139398886448, "lon": 30.58248112073651, "alt_km": 785.9374472155096, "timestamp": "2025-12-13T10:41:26.044591+00:00", "meta": {"OBJECT_NAME": "FENGYUN 1C DEB", "OBJECT_ID": "1999-025ASK", "EPOCH": "2025-12-12T16:18:53.299584", "MEAN_MOTION": 14.16070798, "ECCENTRICITY": 0.0087218, "INCLINATION": 99.0071, "RA_OF_ASC_NODE": 55.4958, "ARG_OF_PERICENTER": 30.637, "MEAN_ANOMALY": 99.6288, "EPHEMERIS_TYPE": 0, "CLASSIFICATION_TYPE": "U", "NORAD_CAT_ID": 30725, "ELEMENT_SET_NO": 999, "REV_AT_EPOCH": 96347, "BSTAR": 0.0017233816, "MEAN_MOTION_DOT": 3.487e-05, "MEAN_MOTION_DDOT": 0}, "tle": {"line1": "1 30725U 99025ASK 25346.67978356  .00003487  00000+0  17234-2 0  9993", "line2": "2 30725  99.0071  55.4958 0087218  30.6370  99.6288 14.16070798963470"}}, "geometry": {"type": "Point", "coordinates": [30.58248112073651, 69.90139398886448]}}]}